IRIDIUM 155             
1 43573U 18061E   24173.93711186  .00000126  00000+0  37751-4 0  9996
2 43573  86.3971 359.7727 0002212  95.8865 264.2583 14.34217510309400
IRIDIUM 154             
1 43574U 18061F   24173.91808324  .00000057  00000+0  13217-4 0  9990
2 43574  86.3975 359.8785 0002067  83.8340 276.3091 14.34218142309458
IRIDIUM 163             
1 43575U 18061G   24173.89905571  .00000058  00000+0  13673-4 0  9997
2 43575  86.3971 359.8245 0002137  90.7847 269.3594 14.34218160309420
IRIDIUM 156             
1 43576U 18061H   24173.94345116  .00000242  00000+0  79489-4 0  9999
2 43576  86.3971 359.8124 0002346  90.9496 269.1968 14.34220345309422
IRIDIUM 164             
1 43577U 18061J   24173.92442712  .00000144  00000+0  44447-4 0  9995
2 43577  86.3973 359.8493 0002343  82.1436 278.0026 14.34217841309463
IRIDIUM 159             
1 43578U 18061K   24173.89271256  .00000194  00000+0  62139-4 0  9998
2 43578  86.3971 359.8146 0002095  82.4959 277.6475 14.34218079309427
IRIDIUM 180             
1 43922U 19002A   24173.89221016  .00000010  00000+0 -34301-5 0  9995
2 43922  86.3959 296.6940 0001975  92.7451 267.3971 14.34217587285033
IRIDIUM 176             
1 43923U 19002B   24173.39982103  .00001079  00000+0  16725-3 0  9995
2 43923  86.6089 296.9211 0002458  87.9522 272.1976 14.72255506292466
IRIDIUM 168             
1 43924U 19002C   24173.88586838  .00000036  00000+0  57171-5 0  9999
2 43924  86.3964 296.7533 0002301  93.0025 267.1434 14.34217300285018
IRIDIUM 173             
1 43925U 19002D   24173.87318223  .00000114  00000+0  33755-4 0  9998
2 43925  86.3959 296.6771 0002124  90.7694 269.3745 14.34218133284995
IRIDIUM 169             
1 43926U 19002E   24173.92484218  .00000459  00000+0  14371-3 0  9997
2 43926  86.4224 328.2829 0001899 153.2010 206.9286 14.38609069285953
IRIDIUM 172             
1 43927U 19002F   24173.86684020 -.00000009  00000+0 -10268-4 0  9999
2 43927  86.3958 296.6857 0002130  91.0150 269.1290 14.34217439285003
IRIDIUM 175             
1 43928U 19002G   24173.80194669  .00001325  00000+0  20615-3 0  9995
2 43928  86.1507 269.6304 0001941 100.0219 260.1217 14.72242467292510
IRIDIUM 171             
1 43929U 19002H   24173.84781229  .00000092  00000+0  25741-4 0  9990
2 43929  86.3971 296.9197 0002368  91.6635 268.4832 14.34217520284999
IRIDIUM 170             
1 43930U 19002J   24173.40600329  .00000141  00000+0  18425-4 0  9991
2 43930  86.6092 296.9230 0002338  91.6712 268.4773 14.72248777292475
IRIDIUM 167             
1 43931U 19002K   24173.84146958  .00000004  00000+0 -57773-5 0  9992
2 43931  86.3961 296.7122 0002243  94.4671 265.6781 14.34217513284994
IRIDIUM 181             
1 56726U 23068S   24173.88986508  .00000460  00000+0  13024-3 0  9996
2 56726  86.8636 350.6542 0002397  94.7736 265.3739 14.43565879 57815
IRIDIUM 177             
1 56727U 23068T   24173.88973402  .00001008  00000+0  12912-3 0  9990
2 56727  86.1970 313.1266 0002660  87.7246 272.4280 14.80230237 59076
IRIDIUM 174             
1 56728U 23068U   24173.88430146  .00001170  00000+0  15045-3 0  9994
2 56728  86.1976 313.2333 0002216  95.2970 264.8504 14.80230616 59079
IRIDIUM 178             
1 56729U 23068V   24173.94649745  .00001677  00000+0  21712-3 0  9999
2 56729  86.5779 330.8952 0001869  91.9213 268.2222 14.80254337 59085
IRIDIUM 179             
1 56730U 23068W   24173.94109492  .00001740  00000+0  22552-3 0  9995
2 56730  86.6790 335.0919 0002044  94.4231 265.7224 14.80235013 59089
